STF-1                   
1 43852U 18104D   22328.43921982  .00010567  00000+0  35886-3 0  9992
2 43852  85.0267 305.6745 0014442  55.2145 305.0458 15.30239183218976
ZACUBE-2                
1 43907U 18111AH  22328.72458402  .00008831  00000+0  29933-3 0  9992
2 43907  97.1663 209.3744 0016699 225.6914 220.1515 15.30644373217783
LUME 1                  
1 43908U 18111AJ  22328.41565165  .00010154  00000+0  30906-3 0  9997
2 43908  97.1675 211.3057 0015040 216.3413 143.6810 15.34080578217880
AOBA VELOX-IV           
1 43940U 19003J   22328.86613627  .00030946  00000+0  59332-3 0  9995
2 43940  97.1091   0.8024 0011227 284.2056  75.7948 15.47886730214841
MOVE-IIB                
1 44398U 19038N   22328.54366688  .00014209  00000+0  59952-3 0  9990
2 44398  97.6466 299.9592 0017385 298.7319  61.2158 15.23268797187364
SONATE                  
1 44400U 19038Q   22327.86131320  .00005772  00000+0  29906-3 0  9992
2 44400  97.6604 297.4193 0021195 307.0298  52.8998 15.16401790187076
LUCKY-7                 
1 44406U 19038W   22328.40694630  .00006290  00000+0  31397-3 0  9990
2 44406  97.6588 298.6977 0019949 302.3572  57.5730 15.17696435187207
BEESAT 9                
1 44412U 19038AC  22328.48879905  .00008675  00000+0  40506-3 0  9996
2 44412  97.6553 299.4098 0017127 306.2278  53.7373 15.19945689186975
JAISAT-1                
1 44419U 19038F   22328.42507712  .00008328  00000+0  38414-3 0  9991
2 44419  97.6554 300.3046 0016013 303.3299  56.6402 15.20398393187334
DUCHIFAT-3              
1 44854U 19089C   22328.76648553  .00004042  00000+0  30522-3 0  9997
2 44854  36.9651 229.1574 0006156  74.6328 321.5632 15.02396136162046
EYESAT-NANO             
1 44877U 19092E   22328.77409048  .00011183  00000+0  43145-3 0  9990
2 44877  97.4596 152.4215 0011042 148.2935 211.8971 15.26411951162780
ORBITAL FACTORY 2 (OF-2)
1 45113U 19071C   22328.45965590  .00042764  00000+0  58013-3 0  9994
2 45113  51.6351 346.6509 0011606  40.6011 319.5844 15.57137237158195
M2 PATHFINDER           
1 45727U 20037E   22328.48057865  .00000898  00000+0  92861-4 0  9991
2 45727  97.7393 141.1752 0011530 222.5007 137.5353 14.92509540130699
NETSAT-4                
1 46504U 20068U   22328.39786469  .00002526  00000+0  18480-3 0  9992
2 46504  97.7395 268.0847 0012255 137.2172 223.0005 15.04473734118082
NETSAT-3                
1 46505U 20068V   22328.41796829  .00002450  00000+0  17959-3 0  9993
2 46505  97.7401 267.9968 0011414 142.9767 217.2248 15.04435405118090
NETSAT-1                
1 46506U 20068W   22328.57351951  .00003290  00000+0  23996-3 0  9995
2 46506  97.7384 268.0654 0009663 152.3338 207.8395 15.04386803118115
NETSAT-2                
1 46507U 20068X   22328.51809510  .00003738  00000+0  27213-3 0  9992
2 46507  97.7373 268.0015 0008496 159.7741 200.3824 15.04383248118055
SAI-1 NANOCONNECT-2     
1 47701U 21015C   22328.76605968  .00011999  00000+0  39449-3 0  9992
2 47701  97.4109  45.2043 0009243 241.1254 118.9060 15.31649986 96716
WILDTRACKCUBE-SIMBA     
1 47941U 21022K   22328.78613216  .00004228  00000+0  27383-3 0  9994
2 47941  97.5150 224.8469 0019619 323.0716 123.7611 15.08526327 92154
BEESAT-6                
1 47957U 21022AB  22327.94725900  .00007684  00000+0  46162-3 0  9997
2 47957  97.5108 224.4998 0018949 326.4019  89.9430 15.11022069 91862
SMOG-1                  
1 47964U 21022AJ  22328.29643789  .00006294  00000+0  36318-3 0  9996
2 47964  97.5152 226.2689 0016239 313.2115  46.7758 15.12591175 91029
MMSATS-1                
1 47976U 98067SJ  22328.87188247  .00042768  00000+0  35639-3 0  9990
2 47976  51.6371 234.2883 0003218 140.4300 336.3070 15.69645629 95351
BCCSAT-1                
1 48041U 21022AK  22328.71192224  .00006421  00000+0  38220-3 0  9999
2 48041  97.5158 226.0805 0013051 311.9237  48.0880 15.11500811 91026
BEESAT-5                
1 48083U 21022AM  22327.26456865  .00009344  00000+0  55343-3 0  9990
2 48083  97.5117 223.8650 0018228 327.7848 159.7663 15.11482730 90896
BEESAT-7                
1 48084U 21022AN  22327.80229932  .00008320  00000+0  49655-3 0  9996
2 48084  97.5086 224.3836 0019038 326.8237 106.4126 15.11229036 90561
BEESAT-8                
1 48085U 21022AP  22327.95335738  .00005449  00000+0  33172-3 0  9991
2 48085  97.5095 224.4881 0019022 326.3165  90.8314 15.10671021 91145
LEDSAT                  
1 49069U 21073D   22328.69415902  .00003950  00000+0  24425-3 0  9990
2 49069  97.5092  38.4016 0027576 104.5533 255.8758 15.10093585 70006
HSU-SAT1                
1 53462U 98067UB  22328.18922394  .00049405  00000+0  57676-3 0  9990
2 53462  51.6375 259.9856 0009871 136.3990 223.7785 15.61063922 16162
FUTABA                  
1 53463U 98067UC  22328.25666829  .00065343  00000+0  69026-3 0  9998
2 53463  51.6362 258.9311 0010548 135.8562 224.3276 15.63510281 16187
TUMNANOSAT              
1 53464U 98067UD  22328.51541694  .00093782  00000+0  88794-3 0  9991
2 53464  51.6363 256.9073 0011155 135.9825 224.2061 15.66107867 16232
